SatCatId,ObjectName,LaunchYear,OrbitalPeriod,LaunchMass,StatusCode,Inclination,Status,UcsData,OrbitClassEstimated,LaunchSiteCountry,Owner,UseType,Purpose,LaunchVehicleClass,TLE1,TLE2,MeanMotion,Eccentricity,OrbitClass
48331,STARLINK-2514,2021,95.59,260.0,+,53.05,Active,1,LEO,USA,USA,Commercial,Communications,Falcon,1 48331U 21036BH  23027.69082251  .00000187  00000+0  31427-4 0  9994,2 48331  53.0533 165.8151 0001390  85.0060 275.1088 15.06396719 96664,15.06396719,0.000139,LEO
48332,STARLINK-2511,2021,95.59,260.0,+,53.06,Active,1,LEO,USA,USA,Commercial,Communications,Falcon,1 48332U 21036BJ  23027.68987539 -.00000238  00000+0  29190-5 0  9990,2 48332  53.0559 165.8017 0001290  81.8527 278.2609 15.06402465 96664,15.06402465,0.000129,LEO
48333,STARLINK-2518,2021,95.59,260.0,+,53.05,Active,1,LEO,USA,USA,Commercial,Communications,Falcon,1 48333U 21036BK  23027.68345071  .00000475  00000+0  50786-4 0  9996,2 48333  53.0543 165.8479 0001155  74.5058 285.6058 15.06393905 96666,15.06393905,0.0001155,LEO
48334,STARLINK-2470,2021,95.59,260.0,+,53.06,Active,1,LEO,USA,USA,Commercial,Communications,Falcon,1 48334U 21036BL  23027.67976456  .00000098  00000+0  25479-4 0  9995,2 48334  53.0563 165.8504 0001247 107.3051 252.8074 15.06393927 96666,15.06393927,0.0001247,LEO
48335,STARLINK-2441,2021,95.59,260.0,+,53.05,Active,1,LEO,USA,USA,Commercial,Communications,Falcon,1 48335U 21036BM  23027.60973160  .00000480  00000+0  51121-4 0  9996,2 48335  53.0529 166.1693 0001051 100.6444 259.4663 15.06391519 96658,15.06391519,0.0001051,LEO
48340,YAOGAN-34 01,2021,107.04,500.0,+,63.41,Active,1,LEO,PRC,China,Military,Earth Observation,Long March,1 48340U 21037A   23028.24216900 -.00000030  00000+0  10000-3 0  9998,2 48340  63.4083  80.5211 0063385 355.7897   4.2582 13.45248882 85819,13.45248882,0.0063385,LEO
48353,STARLINK-2613,2021,95.59,260.0,+,53.05,Active,1,LEO,USA,USA,Commercial,Communications,Falcon,1 48353U 21038A   23027.81431101  .00002915  00000+0  21456-3 0  9997,2 48353  53.0540  65.2563 0001433  98.7755 261.3397 15.06388578 95670,15.06388578,0.0001433,LEO
48354,STARLINK-2674,2021,95.59,260.0,+,53.05,Active,1,LEO,USA,USA,Commercial,Communications,Falcon,1 48354U 21038B   23028.14235339 -.00000175  00000+0  71617-5 0  9993,2 48354  53.0547  63.7757 0002015  87.2273 272.8947 15.06395951 96314,15.06395951,0.0002015,LEO
48355,STARLINK-2635,2021,95.59,260.0,+,53.05,Active,1,LEO,USA,USA,Commercial,Communications,Falcon,1 48355U 21038C   23028.13868611 -.00000256  00000+0  16750-5 0  9995,2 48355  53.0547  63.7993 0001478  96.8683 263.2474 15.06371451 96318,15.06371451,0.0001478,LEO
48356,STARLINK-2637,2021,95.59,260.0,+,53.06,Active,1,LEO,USA,USA,Commercial,Communications,Falcon,1 48356U 21038D   23027.80324914 -.00000049  00000+0  15587-4 0  9998,2 48356  53.0570  65.2981 0001782  89.8683 270.2511 15.06395434 95674,15.06395434,0.0001782,LEO
48357,STARLINK-2636,2021,95.59,260.0,+,53.05,Active,1,LEO,USA,USA,Commercial,Communications,Falcon,1 48357U 21038E   23027.80230639 -.00000443  00000+0 -10819-4 0  9991,2 48357  53.0531  65.3449 0001748 101.4106 258.7079 15.06405572 95670,15.06405572,0.0001748,LEO
48358,STARLINK-2624,2021,95.59,260.0,+,53.05,Active,1,LEO,USA,USA,Commercial,Communications,Falcon,1 48358U 21038F   23027.79587404  .00009729  00000+0  67108-3 0  9991,2 48358  53.0531  65.3413 0001654  70.7567 289.3601 15.06401059 95663,15.06401059,0.0001654,LEO
48359,STARLINK-2628,2021,95.59,260.0,+,53.05,Active,1,LEO,USA,USA,Commercial,Communications,Falcon,1 48359U 21038G   23027.79219077  .00000124  00000+0  27228-4 0  9990,2 48359  53.0536  65.3588 0001364  92.8722 267.2423 15.06397431 95663,15.06397431,0.0001364,LEO
48360,STARLINK-2622,2021,95.59,260.0,+,53.05,Active,1,LEO,USA,USA,Commercial,Communications,Falcon,1 48360U 21038H   23028.12023999  .00003019  00000+0  22155-3 0  9995,2 48360  53.0522  63.8891 0001589  95.2527 264.8644 15.06392879 96300,15.06392879,0.0001589,LEO
48361,STARLINK-2591,2021,95.59,260.0,+,53.05,Active,1,LEO,USA,USA,Commercial,Communications,Falcon,1 48361U 21038J   23028.11654026 -.00003511  00000+0 -21693-3 0  9991,2 48361  53.0517  63.9006 0001510  91.4633 268.6529 15.06399082 96301,15.06399082,0.000151,LEO
48362,STARLINK-2578,2021,95.59,260.0,+,53.06,Active,1,LEO,USA,USA,Commercial,Communications,Falcon,1 48362U 21038K   23027.81800310 -.00000633  00000+0 -23638-4 0  9991,2 48362  53.0556  65.3136 0001319  96.2847 263.8293 15.06394696 95672,15.06394696,0.0001319,LEO
48363,STARLINK-2626,2021,95.59,260.0,+,53.05,Active,1,LEO,USA,USA,Commercial,Communications,Falcon,1 48363U 21038L   23027.49592876  .00000622  00000+0  60672-4 0  9996,2 48363  53.0525  61.6899 0001606  91.1508 268.9665 15.06397277 96286,15.06397277,0.0001606,LEO
48364,STARLINK-2611,2021,95.59,260.0,+,53.05,Active,1,LEO,USA,USA,Commercial,Communications,Falcon,1 48364U 21038M   23028.10783540  .00000597  00000+0  58993-4 0  9990,2 48364  53.0543  59.1434 0001176  80.3313 279.7808 15.06389111 96377,15.06389111,0.0001176,LEO
48365,STARLINK-2608,2021,95.59,260.0,+,53.05,Active,1,LEO,USA,USA,Commercial,Communications,Falcon,1 48365U 21038N   23027.80188483  .00001991  00000+0  15257-3 0  9996,2 48365  53.0553  60.3004 0001788  97.6344 262.4848 15.06384108 95744,15.06384108,0.0001788,LEO
48366,STARLINK-2631,2021,95.59,260.0,+,53.05,Active,1,LEO,USA,USA,Commercial,Communications,Falcon,1 48366U 21038P   23027.45768996  .00001640  00000+0  12895-3 0  9997,2 48366  53.0525  56.8554 0001449  87.6070 272.5084 15.06400768 95759,15.06400768,0.0001449,LEO
48367,STARLINK-2643,2021,95.59,260.0,+,53.05,Active,1,LEO,USA,USA,Commercial,Communications,Falcon,1 48367U 21038Q   23028.11748139 -.00000507  00000+0 -15133-4 0  9991,2 48367  53.0542  53.8946 0001668 106.4695 253.6477 15.06399276 96441,15.06399276,0.0001668,LEO
48368,STARLINK-2623,2021,95.59,260.0,+,53.05,Active,1,LEO,USA,USA,Commercial,Communications,Falcon,1 48368U 21038R   23028.09539328 -.00000723  00000+0 -29671-4 0  9999,2 48368  53.0534  54.2714 0001429  97.7837 262.3314 15.06395823 96447,15.06395823,0.0001429,LEO
48369,STARLINK-2641,2021,95.59,260.0,+,53.06,Active,1,LEO,USA,USA,Commercial,Communications,Falcon,1 48369U 21038S   23027.45032540  .00000659  00000+0  63143-4 0  9991,2 48369  53.0569  56.8908 0001776  96.6295 263.4896 15.06390425 95753,15.06390425,0.0001776,LEO
48370,STARLINK-2621,2021,95.59,260.0,+,53.05,Active,1,LEO,USA,USA,Commercial,Communications,Falcon,1 48370U 21038T   23028.11010273 -.00000929  00000+0 -43514-4 0  9998,2 48370  53.0535  53.9273 0001528 103.4440 256.6720 15.06394669 96446,15.06394669,0.0001528,LEO
48371,STARLINK-2589,2021,95.59,260.0,+,53.05,Active,1,LEO,USA,USA,Commercial,Communications,Falcon,1 48371U 21038U   23028.10641926 -.00000358  00000+0 -51536-5 0  9993,2 48371  53.0534  53.9403 0001509  94.9446 265.1715 15.06392860 96440,15.0639286,0.0001509,LEO
48372,STARLINK-2572,2021,95.59,260.0,+,53.05,Active,1,LEO,USA,USA,Commercial,Communications,Falcon,1 48372U 21038V   23028.10273528 -.00000101  00000+0  12116-4 0  9998,2 48372  53.0541  53.9562 0001327  88.5402 271.5739 15.06394226 96449,15.06394226,0.0001327,LEO
48373,STARLINK-2609,2021,95.59,260.0,+,53.05,Active,1,LEO,USA,USA,Commercial,Communications,Falcon,1 48373U 21038W   23028.09904579 -.00000408  00000+0 -85148-5 0  9991,2 48373  53.0547  53.9668 0001624 106.4223 253.6944 15.06395185 96448,15.06395185,0.0001624,LEO
48374,STARLINK-2604,2021,95.59,260.0,+,53.05,Active,1,LEO,USA,USA,Commercial,Communications,Falcon,1 48374U 21038X   23028.09441380 -.00002331  00000+0 -13765-3 0  9999,2 48374  53.0533  53.9896 0001704  97.4206 262.6977 15.06402558 96445,15.06402558,0.0001704,LEO
48375,STARLINK-2603,2021,95.59,260.0,+,53.05,Active,1,LEO,USA,USA,Commercial,Communications,Falcon,1 48375U 21038Y   23027.36185831  .00001639  00000+0  12892-3 0  9993,2 48375  53.0537  57.2804 0001550  90.5595 269.5572 15.06394891 95749,15.06394891,0.000155,LEO
48376,STARLINK-2610,2021,95.59,260.0,+,53.05,Active,1,LEO,USA,USA,Commercial,Communications,Falcon,1 48376U 21038Z   23028.08798893  .00000706  00000+0  66294-4 0  9992,2 48376  53.0539  54.0209 0001605  88.0865 272.0307 15.06389633 96440,15.06389633,0.0001605,LEO
48377,STARLINK-2499,2021,95.59,260.0,+,53.05,Active,1,LEO,USA,USA,Commercial,Communications,Falcon,1 48377U 21038AA  23028.08429906 -.00000543  00000+0 -17557-4 0  9998,2 48377  53.0545  54.0248 0001505 129.3348 230.7775 15.06389575 96440,15.06389575,0.0001505,LEO
48378,STARLINK-2526,2021,95.59,260.0,+,53.05,Active,1,LEO,USA,USA,Commercial,Communications,Falcon,1 48378U 21038AB  23027.48348709  .00000805  00000+0  72925-4 0  9992,2 48378  53.0541  56.7400 0001305 116.5987 243.5136 15.06400287 95762,15.06400287,0.0001305,LEO
48379,STARLINK-2612,2021,95.59,260.0,+,53.05,Active,1,LEO,USA,USA,Commercial,Communications,Falcon,1 48379U 21038AC  23028.07694153  .00006645  00000+0  46454-3 0  9991,2 48379  53.0538  54.0725 0001363  86.2442 273.8703 15.06405067 96446,15.06405067,0.0001363,LEO
48380,STARLINK-2614,2021,95.59,260.0,+,53.05,Active,1,LEO,USA,USA,Commercial,Communications,Falcon,1 48380U 21038AD  23027.43831856  .00003208  00000+0  23422-3 0  9997,2 48380  53.0546  56.9423 0001653 103.5184 256.5990 15.06388079 95753,15.06388079,0.0001653,LEO
48381,STARLINK-2630,2021,95.59,260.0,+,53.05,Active,1,LEO,USA,USA,Commercial,Communications,Falcon,1 48381U 21038AE  23028.07324409  .00002258  00000+0  17042-3 0  9995,2 48381  53.0520  54.0983 0001158  92.8662 267.2459 15.06402137 96445,15.06402137,0.0001158,LEO
48382,STARLINK-2585,2021,95.59,260.0,+,53.05,Active,1,LEO,USA,USA,Commercial,Communications,Falcon,1 48382U 21038AF  23027.80416937 -.00000078  00000+0  13649-4 0  9993,2 48382  53.0526  55.2902 0001601  95.3582 264.7589 15.06397238 95819,15.06397238,0.0001601,LEO
